{"fetched_at":"2026-07-18T06:28:27.138Z","source":"https://celestrak.org/NORAD/elements/gp.php?NAME=SENTINEL&FORMAT=JSON","constellation":"sentinel-3","records":[{"OBJECT_NAME":"SENTINEL-3A","OBJECT_ID":"2016-011A","EPOCH":"2026-07-17T22:24:08.826336","CLASSIFICATION_TYPE":"U","MEAN_MOTION":14.26740239,"ECCENTRICITY":0.00013346,"INCLINATION":98.6235,"RA_OF_ASC_NODE":265.8732,"ARG_OF_PERICENTER":89.4056,"MEAN_ANOMALY":270.7277,"EPHEMERIS_TYPE":0,"NORAD_CAT_ID":41335,"ELEMENT_SET_NO":999,"REV_AT_EPOCH":54244,"BSTAR":0.000034744251,"MEAN_MOTION_DOT":4e-7,"MEAN_MOTION_DDOT":0},{"OBJECT_NAME":"SENTINEL-3B","OBJECT_ID":"2018-039A","EPOCH":"2026-07-17T20:04:29.573760","CLASSIFICATION_TYPE":"U","MEAN_MOTION":14.26736832,"ECCENTRICITY":0.000121,"INCLINATION":98.6235,"RA_OF_ASC_NODE":265.9266,"ARG_OF_PERICENTER":119.6038,"MEAN_ANOMALY":240.5263,"EPHEMERIS_TYPE":0,"NORAD_CAT_ID":43437,"ELEMENT_SET_NO":999,"REV_AT_EPOCH":42849,"BSTAR":0.000038405298,"MEAN_MOTION_DOT":4.9e-7,"MEAN_MOTION_DDOT":0}]}
